{"epoch":1784902576,"count":18312,"objects":[{"id":"61049","name":"SPACEMOBILE-004","type":"PAYLOAD","l1":"1 61049U 24163E   26205.23126999  .00025866  00000-0  11742-2 0  9996","l2":"2 61049  52.9740 138.5752 0005285 260.6163  99.4233 15.20638649103406"},{"id":"66515","name":"SZ-21 MODULE","type":"PAYLOAD","l1":"1 66515U 25246C   26204.98626512  .00050919  00000-0  27064-3 0  9991","l2":"2 66515  41.4721  77.5925 0009502 274.6333  85.3428 15.79546673 39558"},{"id":"67232","name":"SPACEMOBILE-006","type":"PAYLOAD","l1":"1 67232U 25309A   26205.29263828  .00003733  00000-0  19277-3 0  9999","l2":"2 67232  52.9950 161.6556 0009259 247.0863 112.9154 15.18701235 32233"},{"id":"69589","name":"SPACEMOBILE-008","type":"PAYLOAD","l1":"1 69589U 26139A   26205.13770182  .00000943  00000-0  69997-4 0  9992","l2":"2 69589  52.9952  94.8071 0005391  76.5282 283.6310 15.12820096  5572"},{"id":"69590","name":"SPACEMOBILE-009","type":"PAYLOAD","l1":"1 69590U 26139B   26205.07421027  .00001531  00000-0  10337-3 0  9995","l2":"2 69590  52.9946  95.1172 0005630  74.3539 285.8073 15.12720385  5569"},{"id":"69591","name":"SPACEMOBILE-010","type":"PAYLOAD","l1":"1 69591U 26139C   26205.21043654  .00001644  00000-0  11018-3 0  9990","l2":"2 69591  52.9949  94.5456 0005650  67.0645 293.0941 15.12558231  5597"}]}